HIMAWARI-8              
1 40267U 14060A   24156.37297212 -.00000272  00000+0  00000+0 0  9991
2 40267   0.0267  91.2241 0000666 354.5051  82.5054  1.00270702 35311
